     2.11           N: GPS NAV DATA                         RINEX VERSION / TYPE
RTKCONV 2.4.2                           20230827 155354 UTC PGM / RUN BY / DATE 
log: C:\Users\oo\Desktop\divers\verniquet\Reseau\verniquet  COMMENT             
format: u-blox                                              COMMENT             
                                                            END OF HEADER       
 6 23  8 27 16  0  0.0  .560136977583E-03 -.579802872380E-11  .000000000000E+00
     .180000000000E+02  .655312500000E+02  .414124392800E-08 -.191316838600E+01
     .347569584846E-05  .270826264750E-02  .176578760147E-05  .515372989655E+04
     .576000000000E+05 -.141561031342E-06  .634786294014E+00  .521540641785E-07
     .989491918573E+00  .364281250000E+03 -.789183196214E+00 -.812676708390E-08
     .289654922433E-09  .100000000000E+01  .227700000000E+04  .000000000000E+00
     .240000000000E+01  .000000000000E+00  .372529029846E-08  .180000000000E+02
     .504060000000E+05  .400000000000E+01
11 23  8 27 16  0  0.0 -.340380705893E-03 -.177351466846E-10  .000000000000E+00
     .200000000000E+02  .575937500000E+02  .469483841601E-08 -.528221152977E+00
     .308267772198E-05  .108150287997E-02  .157579779625E-05  .515358546066E+04
     .576000000000E+05  .558793544769E-08  .674006952169E+00  .633299350739E-07
     .965754680039E+00  .351093750000E+03 -.280936396071E+01 -.836820571221E-08
     .275011455331E-09  .100000000000E+01  .227700000000E+04  .000000000000E+00
     .240000000000E+01  .000000000000E+00 -.838190317154E-08  .532000000000E+03
     .504060000000E+05  .400000000000E+01
 4 23  8 27 16  0  0.0  .138318631798E-03  .113686837722E-10  .000000000000E+00
     .132000000000E+03 -.716250000000E+02  .424803409053E-08 -.322351396235E+00
    -.389292836189E-05  .251991988625E-02  .112187117338E-04  .515363479233E+04
     .576000000000E+05  .204890966415E-07  .275381055805E+01  .633299350739E-07
     .963676432283E+00  .164750000000E+03 -.302829367284E+01 -.770032074927E-08
     .264653881039E-09  .100000000000E+01  .227700000000E+04  .000000000000E+00
     .240000000000E+01  .000000000000E+00 -.419095158577E-08  .132000000000E+03
     .504060000000E+05  .400000000000E+01
 7 23  8 27 16  0  0.0  .838972628117E-04 -.106865627458E-10  .000000000000E+00
     .140000000000E+02  .191875000000E+02  .488734643474E-08 -.280895781516E+01
     .925734639168E-06  .175285717705E-01  .666826963425E-05  .515371801186E+04
     .576000000000E+05  .158324837685E-06 -.251529426001E+01 -.199303030968E-06
     .950411124164E+00  .242062500000E+03 -.217536099350E+01 -.778746723641E-08
     .286440502825E-09  .100000000000E+01  .227700000000E+04  .000000000000E+00
     .240000000000E+01  .000000000000E+00 -.111758708954E-07  .140000000000E+02
     .504060000000E+05  .400000000000E+01
20 23  8 27 16  0  0.0  .414997339249E-03 -.204636307899E-11  .000000000000E+00
     .890000000000E+02 -.999687500000E+02  .507521140293E-08 -.126324489826E+01
    -.510551035404E-05  .407135603018E-02  .217556953430E-05  .515360770226E+04
     .576000000000E+05  .838190317154E-07  .150131599522E+01 -.316649675369E-07
     .949554439337E+00  .331062500000E+03 -.286319148285E+01 -.848535344903E-08
    -.357157734196E-10  .100000000000E+01  .227700000000E+04  .000000000000E+00
     .240000000000E+01  .000000000000E+00 -.838190317154E-08  .890000000000E+02
     .504060000000E+05  .400000000000E+01
30 23  8 27 16  0  0.0 -.492957420647E-03  .318323145621E-11  .000000000000E+00
     .750000000000E+02  .204375000000E+02  .532165023952E-08 -.289245549276E+01
     .968575477600E-06  .658276467584E-02  .652298331261E-05  .515376468277E+04
     .576000000000E+05 -.167638063431E-07 -.251058461177E+01 -.875443220139E-07
     .935535822034E+00  .238187500000E+03 -.254691551371E+01 -.818069790176E-08
     .226438003480E-09  .100000000000E+01  .227700000000E+04  .000000000000E+00
     .240000000000E+01  .000000000000E+00  .372529029846E-08  .750000000000E+02
     .504060000000E+05  .400000000000E+01
16 23  8 27 16  0  0.0 -.462579540908E-03  .522959453519E-11  .000000000000E+00
     .100000000000E+02  .204062500000E+02  .440768359771E-08  .101406359534E+01
     .120699405670E-05  .133431148715E-01  .838562846184E-05  .515364493942E+04
     .576000000000E+05 -.149011611938E-06 -.138174435383E+01  .465661287308E-07
     .963871076459E+00  .223406250000E+03  .791343981808E+00 -.797533220460E-08
    -.670385067086E-09  .100000000000E+01  .227700000000E+04  .000000000000E+00
     .240000000000E+01  .000000000000E+00 -.102445483208E-07  .100000000000E+02
     .504060000000E+05  .400000000000E+01
19 23  8 27 16  0  0.0  .363395083696E-03  .511590769747E-11  .000000000000E+00
     .880000000000E+02  .132625000000E+03  .384123143128E-08  .213749841340E+01
     .672414898872E-05  .944996497128E-02  .954046845436E-05  .515365361595E+04
     .576000000000E+05  .596046447754E-07 -.316208794863E+00  .800937414169E-07
     .972341110276E+00  .197843750000E+03  .239748458348E+01 -.763460372618E-08
    -.507163982558E-10  .100000000000E+01  .227700000000E+04  .000000000000E+00
     .240000000000E+01  .000000000000E+00 -.153668224812E-07  .880000000000E+02
     .504060000000E+05  .400000000000E+01
 5 23  8 27 16  0  0.0 -.140425283462E-03 -.147792889038E-11  .000000000000E+00
     .400000000000E+02 -.111406250000E+03  .464733643736E-08  .402981047812E+00
    -.565499067307E-05  .606462825090E-02  .357255339622E-05  .515372009659E+04
     .576000000000E+05 -.186264514923E-07  .162542602250E+01  .558793544769E-08
     .967054990385E+00  .315000000000E+03  .121603120975E+01 -.834249035535E-08
    -.161792453591E-09  .100000000000E+01  .227700000000E+04  .000000000000E+00
     .240000000000E+01  .000000000000E+00 -.111758708954E-07  .400000000000E+02
     .505560000000E+05  .400000000000E+01
 3 23  8 27 16  0  0.0 -.166363548487E-03  .190993887372E-10  .000000000000E+00
     .380000000000E+02 -.145500000000E+03  .421410410578E-08  .295737051198E+01
    -.752136111259E-05  .511120236479E-02  .432133674622E-05  .515361566734E+04
     .576000000000E+05  .558793544769E-08  .167321977851E+01 -.132247805595E-06
     .980048799926E+00  .303718750000E+03  .110033025941E+01 -.800819071614E-08
    -.202508435289E-09  .100000000000E+01  .227700000000E+04  .000000000000E+00
     .340000000000E+01  .000000000000E+00  .186264514923E-08  .380000000000E+02
     .507960000000E+05  .400000000000E+01
29 23  8 27 16  0  0.0 -.608498696238E-03 -.568434188608E-12  .000000000000E+00
     .190000000000E+02  .975000000000E+02  .381980196723E-08 -.195559319316E-01
     .508315861225E-05  .261703564320E-02  .857748091221E-05  .515372804070E+04
     .576000000000E+05  .204890966415E-07 -.346356683786E+00 -.298023223877E-07
     .975529298848E+00  .218343750000E+03  .253789758343E+01 -.777068082290E-08
     .292869342041E-10  .100000000000E+01  .227700000000E+04  .000000000000E+00
     .240000000000E+01  .000000000000E+00 -.977888703346E-08  .190000000000E+02
     .508560000000E+05  .400000000000E+01
13 23  8 27 15 59 44.0  .565317459404E-03  .466116034659E-11  .000000000000E+00
     .800000000000E+01 -.504062500000E+02  .424839124826E-08 -.324263678861E+00
    -.262260437012E-05  .739770010114E-02  .103805214167E-04  .515367253494E+04
     .575840000000E+05 -.372529029846E-08  .285806653410E+01  .577419996262E-07
     .970603039250E+00  .181781250000E+03  .928933121222E+00 -.781496838194E-08
     .231081054025E-09  .100000000000E+01  .227700000000E+04  .000000000000E+00
     .240000000000E+01  .000000000000E+00 -.116415321827E-07  .800000000000E+01
     .528660000000E+05  .400000000000E+01
